
# Worst residual: 42.22 km
# MJD 60851.000000 (2025 Jun 25  0:00)
ZTs0406 = A11mHzW = A11mRg8
1 79883U 25000ZZK 25176.49919926  .00000000  00000-0  00000-0 0 26823
2 79883 027.6903 027.4532 7384674 042.6308 204.2931 00.91806042    00

# Worst residual: 54.16 km
# MJD 60852.000000 (2025 Jun 26  0:00)
ZTs0406 = A11mHzW = A11mRg8
1 79883U 25000ZZK 25177.49919926  .00000000  00000-0  00000-0 0 26824
2 79883 027.6725 027.3710 7364350 043.1092 174.6767 00.91776931    04

# Worst residual: 106.76 km
# MJD 60853.000000 (2025 Jun 27  0:00)
ZTs0406 = A11mHzW = A11mRg8
1 79883U 25000ZZK 25178.49919926  .00000000  00000-0  00000-0 0 26825
2 79883 027.6532 027.2880 7351536 043.5427 144.9227 00.91825768    09

# Worst residual: 135.08 km
# MJD 60854.000000 (2025 Jun 28  0:00)
ZTs0406 = A11mHzW = A11mRg8
1 79883U 25000ZZK 25179.49919926  .00000000  00000-0  00000-0 0 26826
2 79883 027.6412 027.2127 7330897 043.9663 114.9172 00.91849471    06

# Worst residual: 108.59 km
# MJD 60855.000000 (2025 Jun 29  0:00)
ZTs0406 = A11mHzW = A11mRg8
1 79883U 25000ZZK 25180.49919926  .00000000  00000-0  00000-0 0 26828
2 79883 027.6178 027.1272 7307141 044.3942 084.6915 00.91879419    09

# Worst residual: 97.45 km
# MJD 60856.000000 (2025 Jun 30  0:00)
ZTs0406 = A11mHzW = A11mRg8
1 79883U 25000ZZK 25181.49919926  .00000000  00000-0  00000-0 0 26829
2 79883 027.6049 027.0398 7279443 044.8405 054.2096 00.91886796    05

# Worst residual: 72.00 km
# MJD 60857.000000 (2025 Jul  1  0:00)
ZTs0406 = A11mHzW = A11mRg8
1 79883U 25000ZZK 25182.49919926  .00000000  00000-0  00000-0 0 26820
2 79883 027.5859 026.9501 7252244 045.3138 023.4582 00.91822587    02

# Worst residual: 91.64 km
# MJD 60858.000000 (2025 Jul  2  0:00)
ZTs0406 = A11mHzW = A11mRg8
1 79883U 25000ZZK 25183.49919926  .00000000  00000-0  00000-0 0 26821
2 79883 027.5588 026.8517 7226863 045.7946 352.5285 00.91702998    05

# Worst residual: 100.35 km
# MJD 60859.000000 (2025 Jul  3  0:00)
ZTs0406 = A11mHzW = A11mRg8
1 79883U 25000ZZK 25184.49919926  .00000000  00000-0  00000-0 0 26822
2 79883 027.5378 026.7600 7201222 046.2524 321.4824 00.91552679    07

# Worst residual: 92.64 km
# MJD 60860.000000 (2025 Jul  4  0:00)
ZTs0406 = A11mHzW = A11mRg8
1 79883U 25000ZZK 25185.49919926  .00000000  00000-0  00000-0 0 26823
2 79883 027.5130 026.6674 7173595 046.7060 290.3073 00.91404253    08

# Worst residual: 45.09 km
# MJD 60861.000000 (2025 Jul  5  0:00)
ZTs0406 = A11mHzW = A11mRg8
1 79883U 25000ZZK 25186.49919926  .00000000  00000-0  00000-0 0 26824
2 79883 027.4953 026.6019 7142188 047.1446 258.9868 00.91284090    07

# Worst residual: 42.23 km
# MJD 60862.000000 (2025 Jul  6  0:00)
ZTs0406 = A11mHzW = A11mRg8
1 79883U 25000ZZK 25187.49919926  .00000000  00000-0  00000-0 0 26825
2 79883 027.4658 026.4992 7111624 047.6428 227.4677 00.91200665    08

# Worst residual: 50.37 km
# MJD 60863.000000 (2025 Jul  7  0:00)
ZTs0406 = A11mHzW = A11mRg8
1 79883U 25000ZZK 25188.49919926  .00000000  00000-0  00000-0 0 26826
2 79883 027.4435 026.4009 7085698 048.1457 195.7908 00.91179992    01

# Worst residual: 76.15 km
# MJD 60864.000000 (2025 Jul  8  0:00)
ZTs0406 = A11mHzW = A11mRg8
1 79883U 25000ZZK 25189.49919926  .00000000  00000-0  00000-0 0 26827
2 79883 027.4199 026.3061 7062184 048.6452 163.9221 00.91207253    07

# Worst residual: 123.77 km
# MJD 60865.000000 (2025 Jul  9  0:00)
ZTs0406 = A11mHzW = A11mRg8
1 79883U 25000ZZK 25190.49919926  .00000000  00000-0  00000-0 0 26829
2 79883 027.4026 026.2066 7041625 049.0835 131.9831 00.91279545    02

# Worst residual: 109.02 km
# MJD 60866.000000 (2025 Jul 10  0:00)
ZTs0406 = A11mHzW = A11mRg8
1 79883U 25000ZZK 25191.49919926  .00000000  00000-0  00000-0 0 26820
2 79883 027.3782 026.1189 7011808 049.5101 099.8527 00.91336331    07

# Worst residual: 98.92 km
# MJD 60867.000000 (2025 Jul 11  0:00)
ZTs0406 = A11mHzW = A11mRg8
1 79883U 25000ZZK 25192.49919926  .00000000  00000-0  00000-0 0 26821
2 79883 027.3540 026.0132 6977944 049.9749 067.4881 00.91369454    05

# Worst residual: 70.13 km
# MJD 60868.000000 (2025 Jul 12  0:00)
ZTs0406 = A11mHzW = A11mRg8
1 79883U 25000ZZK 25193.49919926  .00000000  00000-0  00000-0 0 26822
2 79883 027.3259 025.8987 6943551 050.4758 034.9026 00.91344436    04

# Worst residual: 101.93 km
# MJD 60869.000000 (2025 Jul 13  0:00)
ZTs0406 = A11mHzW = A11mRg8
1 79883U 25000ZZK 25194.49919926  .00000000  00000-0  00000-0 0 26823
2 79883 027.2970 025.7854 6910331 050.9859 002.1735 00.91234004    05

# Worst residual: 106.18 km
# MJD 60870.000000 (2025 Jul 14  0:00)
ZTs0406 = A11mHzW = A11mRg8
1 79883U 25000ZZK 25195.49919926  .00000000  00000-0  00000-0 0 26824
2 79883 027.2707 025.6867 6878294 051.4645 329.3935 00.91072410    03

# Worst residual: 106.41 km
# MJD 60871.000000 (2025 Jul 15  0:00)
ZTs0406 = A11mHzW = A11mRg8
1 79883U 25000ZZK 25196.49919926  .00000000  00000-0  00000-0 0 26825
2 79883 027.2455 025.5782 6842982 051.9315 296.5633 00.90937529    02

# Worst residual: 55.31 km
# MJD 60872.000000 (2025 Jul 16  0:00)
ZTs0406 = A11mHzW = A11mRg8
1 79883U 25000ZZK 25197.49919926  .00000000  00000-0  00000-0 0 26826
2 79883 027.2130 025.4696 6806210 052.4139 263.6495 00.90827638    09

# Worst residual: 56.46 km
# MJD 60873.000000 (2025 Jul 17  0:00)
ZTs0406 = A11mHzW = A11mRg8
1 79883U 25000ZZK 25198.49919926  .00000000  00000-0  00000-0 0 26827
2 79883 027.1856 025.3684 6767631 052.9195 230.5977 00.90766944    09

# Worst residual: 55.87 km
# MJD 60874.000000 (2025 Jul 18  0:00)
ZTs0406 = A11mHzW = A11mRg8
1 79883U 25000ZZK 25199.49919926  .00000000  00000-0  00000-0 0 26828
2 79883 027.1568 025.2551 6735449 053.4504 197.4375 00.90774952    04

# Worst residual: 81.44 km
# MJD 60875.000000 (2025 Jul 19  0:00)
ZTs0406 = A11mHzW = A11mRg8
1 79883U 25000ZZK 25200.49919926  .00000000  00000-0  00000-0 0 26821
2 79883 027.1257 025.1205 6706627 053.9864 164.1666 00.90837432    01

# Worst residual: 114.42 km
# MJD 60876.000000 (2025 Jul 20  0:00)
ZTs0406 = A11mHzW = A11mRg8
1 79883U 25000ZZK 25201.49919926  .00000000  00000-0  00000-0 0 26822
2 79883 027.1045 025.0307 6678975 054.4153 130.8703 00.90931413    05

# Worst residual: 102.29 km
# MJD 60877.000000 (2025 Jul 21  0:00)
ZTs0406 = A11mHzW = A11mRg8
1 79883U 25000ZZK 25202.49919926  .00000000  00000-0  00000-0 0 26823
2 79883 027.0822 024.9198 6643165 054.8623 097.4334 00.91009525    01

# Worst residual: 80.94 km
# MJD 60878.000000 (2025 Jul 22  0:00)
ZTs0406 = A11mHzW = A11mRg8
1 79883U 25000ZZK 25203.49919926  .00000000  00000-0  00000-0 0 26824
2 79883 027.0563 024.7978 6603362 055.3550 063.8086 00.91049764    07

# Worst residual: 91.83 km
# MJD 60879.000000 (2025 Jul 23  0:00)
ZTs0406 = A11mHzW = A11mRg8
1 79883U 25000ZZK 25204.49919926  .00000000  00000-0  00000-0 0 26825
2 79883 027.0296 024.6735 6561778 055.8878 030.0132 00.91015747    04
